OBJECT_NAME,OBJECT_ID,EPOCH,MEAN_MOTION,ECCENTRICITY,INCLINATION,RA_OF_ASC_NODE,ARG_OF_PERICENTER,MEAN_ANOMALY,EPHEMERIS_TYPE,CLASSIFICATION_TYPE,NORAD_CAT_ID,ELEMENT_SET_NO,REV_AT_EPOCH,BSTAR,MEAN_MOTION_DOT,MEAN_MOTION_DDOT
ONEWEB-0395,2021-132G,2026-07-19T05:04:48.603360,13.11418572,.00019579,87.8887,14.6893,85.3095,274.8257,0,U,50475,999,21991,-.1330939E-2,-.459E-5,0
ONEWEB-0396,2021-132H,2026-07-19T02:40:12.425952,13.18686088,.00017216,87.9201,329.1082,96.9153,263.2175,0,U,50476,999,22584,-.20517549E-4,.5E-7,0
ONEWEB-0397,2021-132J,2026-07-18T21:34:15.919968,13.18686461,.00016466,87.9205,329.1499,102.1781,257.9535,0,U,50477,999,22579,-.11982163E-3,-.34E-6,0
ONEWEB-0398,2021-132K,2026-07-19T00:38:42.869184,13.11415090,.0002124,87.8895,14.7190,88.8509,271.2862,0,U,50478,999,21978,.79339813E-3,.294E-5,0
ONEWEB-0399,2021-132L,2026-07-19T05:48:47.639520,13.11416784,.00014741,87.8892,14.6877,81.0569,279.0725,0,U,50479,999,21980,.12056212E-2,.44E-5,0
ONEWEB-0400,2021-132M,2026-07-18T21:02:42.143424,13.18685079,.00020306,87.9200,329.1446,97.0379,263.0985,0,U,50480,999,22578,.20805849E-3,.95E-6,0
ONEWEB-0401,2021-132N,2026-07-19T07:14:34.658592,13.18686833,.0001795,87.9205,329.0574,106.1409,253.9921,0,U,50481,999,22584,.92723214E-4,.49E-6,0
ONEWEB-0402,2021-132P,2026-07-18T19:25:34.287168,13.18685896,.00016374,87.9202,329.1439,113.5243,246.6062,0,U,50482,999,22580,-.69179933E-3,-.26E-5,0
ONEWEB-0403,2021-132Q,2026-07-19T06:57:34.776576,13.18687352,.00018038,87.9201,329.0731,95.3770,264.7568,0,U,50483,999,22582,.56567137E-4,.35E-6,0
ONEWEB-0404,2021-132R,2026-07-19T05:21:55.060416,13.11418032,.00017483,87.8890,14.6881,81.1811,278.9515,0,U,50484,999,21989,-.32281672E-3,-.102E-5,0
ONEWEB-0405,2021-132S,2026-07-19T01:49:13.213632,13.18685426,.00023561,87.9204,329.1009,95.3805,264.7596,0,U,50485,999,22619,.85964911E-4,.47E-6,0
ONEWEB-0406,2021-132T,2026-07-19T07:04:51.301344,13.18687203,.00016475,87.9200,329.0716,81.9942,278.1377,0,U,50486,999,22585,.11262669E-3,.57E-6,0
ONEWEB-0407,2021-132U,2026-07-19T06:55:07.850784,13.18685202,.00020278,87.9202,329.0666,103.8423,256.2935,0,U,50487,999,22579,.15242999E-3,.73E-6,0
ONEWEB-0409,2021-132V,2026-07-18T23:49:52.618368,13.11419040,.00018572,87.8894,14.7235,82.2049,277.9290,0,U,50488,999,21975,-.23353586E-3,-.7E-6,0
ONEWEB-0412,2021-132W,2026-07-18T21:31:50.378304,13.18686458,.00017271,87.9201,329.1519,107.6348,252.4973,0,U,50489,999,22583,-.12329073E-3,-.36E-6,0
ONEWEB-0413,2021-132X,2026-07-18T21:39:06.924672,13.18687246,.00018832,87.9192,329.1470,109.1819,250.9517,0,U,50490,999,22577,-.221316E-3,-.74E-6,0
ONEWEB-0414,2021-132Y,2026-07-18T21:17:16.112256,13.18686492,.00017114,87.9202,329.1352,100.9483,259.1842,0,U,50491,999,22580,-.97909024E-4,-.26E-6,0
ONEWEB-0417,2021-132Z,2026-07-18T21:29:24.368352,13.18685661,.00018049,87.9194,329.1503,92.8388,267.2951,0,U,50492,999,22578,-.65736196E-3,-.246E-5,0
ONEWEB-0418,2021-132AA,2026-07-19T06:50:05.404128,13.18686517,.00018305,87.9198,329.0744,90.6747,269.4595,0,U,50493,999,22589,.14709135E-3,.71E-6,0
ONEWEB-0419,2021-132AB,2026-07-19T01:49:47.171424,13.18666263,.00020608,87.9203,329.1166,93.1294,267.0074,0,U,50494,999,22578,.12639427E-3,.63E-6,0
ONEWEB-0420,2021-132AC,2026-07-18T21:19:41.284128,13.18684012,.00020403,87.9194,329.1541,103.4412,256.6948,0,U,50495,999,22575,-.11332448E-3,-.32E-6,0
ONEWEB-0421,2021-132AD,2026-07-18T21:10:00.299424,13.18685905,.00015547,87.9193,329.1538,104.1620,255.9685,0,U,50496,999,22579,-.10742918E-3,-.29E-6,0
ONEWEB-0424,2021-132AE,2026-07-19T07:09:43.099200,13.18687155,.00021584,87.9203,329.0706,92.2146,267.9234,0,U,50497,999,22587,.8871318E-4,.48E-6,0
ONEWEB-0426,2021-132AF,2026-07-18T21:03:52.461792,13.18711765,.00013341,87.9209,329.1443,82.3249,277.8034,0,U,50498,999,22576,.76879865E-2,.3046E-4,0
ONEWEB-0427,2021-132AG,2026-07-18T22:00:58.884480,13.18687307,.00018038,87.9200,329.1271,93.3296,266.8043,0,U,50499,999,22579,.14421895E-3,.7E-6,0
ONEWEB-0429,2021-132AH,2026-07-18T21:41:32.280576,13.18685869,.00019579,87.9197,329.1509,104.7162,255.4187,0,U,50500,999,22576,-.52063092E-3,-.192E-5,0
ONEWEB-0430,2021-132AJ,2026-07-18T21:24:32.185152,13.18686040,.00021195,87.9194,329.1524,103.0057,257.1312,0,U,50501,999,22580,-.88484487E-3,-.336E-5,0
ONEWEB-0432,2021-132AK,2026-07-18T21:00:05.216832,13.18686260,.00023469,87.9201,329.1425,96.2914,263.8486,0,U,50502,999,22575,.89576956E-4,.48E-6,0
ONEWEB-0440,2021-132AL,2026-07-18T21:53:41.172576,13.18685660,.00017756,87.9206,329.1461,110.4859,249.6464,0,U,50503,999,22575,-.3274461E-3,-.116E-5,0
ONEWEB-0450,2021-132AM,2026-07-19T06:50:29.103648,13.18687301,.00020421,87.9195,329.0743,104.6283,255.5076,0,U,50504,999,22583,.10871409E-3,.56E-6,0
