[
  {
    "name": "ONEWEB-0395",
    "noradId": "50475",
    "line1": "1 50475U 21132G   26200.21167365 -.00000459  00000+0 -13309-2 0  9998",
    "line2": "2 50475  87.8887  14.6893 0001957  85.3095 274.8257 13.11418572219912"
  },
  {
    "name": "ONEWEB-0396",
    "noradId": "50476",
    "line1": "1 50476U 21132H   26200.11125493  .00000005  00000+0 -20518-4 0  9992",
    "line2": "2 50476  87.9201 329.1082 0001721  96.9153 263.2175 13.18686088225846"
  },
  {
    "name": "ONEWEB-0397",
    "noradId": "50477",
    "line1": "1 50477U 21132J   26199.89879537 -.00000034  00000+0 -11982-3 0  9997",
    "line2": "2 50477  87.9205 329.1499 0001646 102.1781 257.9535 13.18686461225795"
  },
  {
    "name": "ONEWEB-0398",
    "noradId": "50478",
    "line1": "1 50478U 21132K   26200.02688506  .00000294  00000+0  79340-3 0  9998",
    "line2": "2 50478  87.8895  14.7190 0002124  88.8509 271.2862 13.11415090219780"
  },
  {
    "name": "ONEWEB-0399",
    "noradId": "50479",
    "line1": "1 50479U 21132L   26200.24221805  .00000440  00000+0  12056-2 0  9991",
    "line2": "2 50479  87.8892  14.6877 0001474  81.0569 279.0725 13.11416784219805"
  },
  {
    "name": "ONEWEB-0400",
    "noradId": "50480",
    "line1": "1 50480U 21132M   26199.87687666  .00000095  00000+0  20806-3 0  9999",
    "line2": "2 50480  87.9200 329.1446 0002030  97.0379 263.0985 13.18685079225789"
  },
  {
    "name": "ONEWEB-0401",
    "noradId": "50481",
    "line1": "1 50481U 21132N   26200.30179003  .00000049  00000+0  92723-4 0  9999",
    "line2": "2 50481  87.9205 329.0574 0001795 106.1409 253.9921 13.18686833225843"
  },
  {
    "name": "ONEWEB-0402",
    "noradId": "50482",
    "line1": "1 50482U 21132P   26199.80942462 -.00000260  00000+0 -69180-3 0  9996",
    "line2": "2 50482  87.9202 329.1439 0001637 113.5243 246.6062 13.18685896225804"
  },
  {
    "name": "ONEWEB-0403",
    "noradId": "50483",
    "line1": "1 50483U 21132Q   26200.28998584  .00000035  00000+0  56567-4 0  9992",
    "line2": "2 50483  87.9201 329.0731 0001803  95.3770 264.7568 13.18687352225828"
  },
  {
    "name": "ONEWEB-0404",
    "noradId": "50484",
    "line1": "1 50484U 21132R   26200.22355394 -.00000102  00000+0 -32282-3 0  9997",
    "line2": "2 50484  87.8890  14.6881 0001748  81.1811 278.9515 13.11418032219891"
  },
  {
    "name": "ONEWEB-0405",
    "noradId": "50485",
    "line1": "1 50485U 21132S   26200.07584738  .00000047  00000+0  85965-4 0  9990",
    "line2": "2 50485  87.9204 329.1009 0002356  95.3805 264.7596 13.18685426226197"
  },
  {
    "name": "ONEWEB-0406",
    "noradId": "50486",
    "line1": "1 50486U 21132T   26200.29503821  .00000057  00000+0  11263-3 0  9999",
    "line2": "2 50486  87.9200 329.0716 0001647  81.9942 278.1377 13.18687203225856"
  },
  {
    "name": "ONEWEB-0407",
    "noradId": "50487",
    "line1": "1 50487U 21132U   26200.28828531  .00000073  00000+0  15243-3 0  9997",
    "line2": "2 50487  87.9202 329.0666 0002027 103.8423 256.2935 13.18685202225791"
  },
  {
    "name": "ONEWEB-0409",
    "noradId": "50488",
    "line1": "1 50488U 21132V   26199.99297012 -.00000070  00000+0 -23354-3 0  9998",
    "line2": "2 50488  87.8894  14.7235 0001857  82.2049 277.9290 13.11419040219753"
  },
  {
    "name": "ONEWEB-0412",
    "noradId": "50489",
    "line1": "1 50489U 21132W   26199.89711086 -.00000036  00000+0 -12329-3 0  9992",
    "line2": "2 50489  87.9201 329.1519 0001727 107.6348 252.4973 13.18686458225833"
  },
  {
    "name": "ONEWEB-0413",
    "noradId": "50490",
    "line1": "1 50490U 21132X   26199.90216348 -.00000074  00000+0 -22132-3 0  9992",
    "line2": "2 50490  87.9192 329.1470 0001883 109.1819 250.9517 13.18687246225779"
  },
  {
    "name": "ONEWEB-0414",
    "noradId": "50491",
    "line1": "1 50491U 21132Y   26199.88699204 -.00000026  00000+0 -97909-4 0  9998",
    "line2": "2 50491  87.9202 329.1352 0001711 100.9483 259.1842 13.18686492225805"
  },
  {
    "name": "ONEWEB-0417",
    "noradId": "50492",
    "line1": "1 50492U 21132Z   26199.89542093 -.00000246  00000+0 -65736-3 0  9999",
    "line2": "2 50492  87.9194 329.1503 0001804  92.8388 267.2951 13.18685661225785"
  },
  {
    "name": "ONEWEB-0418",
    "noradId": "50493",
    "line1": "1 50493U 21132AA  26200.28478477  .00000071  00000+0  14709-3 0  9998",
    "line2": "2 50493  87.9198 329.0744 0001830  90.6747 269.4595 13.18686517225891"
  },
  {
    "name": "ONEWEB-0419",
    "noradId": "50494",
    "line1": "1 50494U 21132AB  26200.07624041  .00000063  00000+0  12639-3 0  9997",
    "line2": "2 50494  87.9203 329.1166 0002060  93.1294 267.0074 13.18666263225789"
  },
  {
    "name": "ONEWEB-0420",
    "noradId": "50495",
    "line1": "1 50495U 21132AC  26199.88867227 -.00000032  00000+0 -11332-3 0  9996",
    "line2": "2 50495  87.9194 329.1541 0002040 103.4412 256.6948 13.18684012225754"
  },
  {
    "name": "ONEWEB-0421",
    "noradId": "50496",
    "line1": "1 50496U 21132AD  26199.88194791 -.00000029  00000+0 -10743-3 0  9997",
    "line2": "2 50496  87.9193 329.1538 0001554 104.1620 255.9685 13.18685905225794"
  },
  {
    "name": "ONEWEB-0424",
    "noradId": "50497",
    "line1": "1 50497U 21132AE  26200.29841550  .00000048  00000+0  88713-4 0  9990",
    "line2": "2 50497  87.9203 329.0706 0002158  92.2146 267.9234 13.18687155225875"
  },
  {
    "name": "ONEWEB-0426",
    "noradId": "50498",
    "line1": "1 50498U 21132AF  26199.87769053  .00003046  00000+0  76880-2 0  9990",
    "line2": "2 50498  87.9209 329.1443 0001334  82.3249 277.8034 13.18711765225761"
  },
  {
    "name": "ONEWEB-0427",
    "noradId": "50499",
    "line1": "1 50499U 21132AG  26199.91734820  .00000070  00000+0  14422-3 0  9999",
    "line2": "2 50499  87.9200 329.1271 0001803  93.3296 266.8043 13.18687307225792"
  },
  {
    "name": "ONEWEB-0429",
    "noradId": "50500",
    "line1": "1 50500U 21132AH  26199.90384584 -.00000192  00000+0 -52063-3 0  9999",
    "line2": "2 50500  87.9197 329.1509 0001957 104.7162 255.4187 13.18685869225764"
  },
  {
    "name": "ONEWEB-0430",
    "noradId": "50501",
    "line1": "1 50501U 21132AJ  26199.89203918 -.00000336  00000+0 -88484-3 0  9995",
    "line2": "2 50501  87.9194 329.1524 0002119 103.0057 257.1312 13.18686040225801"
  },
  {
    "name": "ONEWEB-0432",
    "noradId": "50502",
    "line1": "1 50502U 21132AK  26199.87506038  .00000048  00000+0  89577-4 0  9996",
    "line2": "2 50502  87.9201 329.1425 0002346  96.2914 263.8486 13.18686260225752"
  },
  {
    "name": "ONEWEB-0440",
    "noradId": "50503",
    "line1": "1 50503U 21132AL  26199.91228209 -.00000116  00000+0 -32745-3 0  9995",
    "line2": "2 50503  87.9206 329.1461 0001775 110.4859 249.6464 13.18685660225751"
  },
  {
    "name": "ONEWEB-0450",
    "noradId": "50504",
    "line1": "1 50504U 21132AM  26200.28505907  .00000056  00000+0  10871-3 0  9999",
    "line2": "2 50504  87.9195 329.0743 0002042 104.6283 255.5076 13.18687301225833"
  }
]